56047,ONEWEB-0538,2023,109.37,-1.0,+,87.91,Active,0,LEO,India,UK,Unknown,Unknown,Unknown,1 56047U 23043B   24058.43390290  .00000051  00000+0  10030-3 0  9995,2 56047  87.9075  36.1046 0001707  75.0789 285.0531 13.16595002 48346,13.16595002,0.0001707,LEO
56048,ONEWEB-0546,2023,109.37,-1.0,+,87.91,Active,0,LEO,India,UK,Unknown,Unknown,Unknown,1 56048U 23043C   24058.42123976 -.00000009  00000+0 -57998-4 0  9990,2 56048  87.9079  36.0690 0001490 114.0814 246.0472 13.16594846 48332,13.16594846,0.000149,LEO
56049,ONEWEB-0547,2023,108.94,-1.0,+,87.92,Active,0,LEO,India,UK,Unknown,Unknown,Unknown,1 56049U 23043D   24058.48863647  .00000059  00000+0  11176-3 0  9993,2 56049  87.9220  51.3074 0001488  75.2697 284.8602 13.21825762 47166,13.21825762,0.0001488,LEO
56050,ONEWEB-0548,2023,109.37,-1.0,+,87.91,Active,0,LEO,India,UK,Unknown,Unknown,Unknown,1 56050U 23043E   24058.44657301  .00000105  00000+0  24115-3 0  9998,2 56050  87.9075  36.1085 0002506  89.1711 270.9707 13.16594833 48330,13.16594833,0.0002506,LEO
56051,ONEWEB-0549,2023,108.94,-1.0,+,87.92,Active,0,LEO,India,UK,Unknown,Unknown,Unknown,1 56051U 23043F   24058.48074719  .00000126  00000+0  27241-3 0  9995,2 56051  87.9221  51.3087 0001926  82.6456 277.4896 13.21825723 47166,13.21825723,0.0001926,LEO
56052,ONEWEB-0550,2023,108.94,-1.0,+,87.92,Active,0,LEO,India,UK,Unknown,Unknown,Unknown,1 56052U 23043G   24058.54383483  .00000183  00000+0  41187-3 0  9992,2 56052  87.9217  51.3078 0002106  85.4782 274.6593 13.21826013 47173,13.21826013,0.0002106,LEO
56053,ONEWEB-0551,2023,109.46,-1.0,+,87.89,Active,0,LEO,India,UK,Unknown,Unknown,Unknown,1 56053U 23043H   24058.56965130  .00000004  00000+0 -24474-4 0  9994,2 56053  87.8951  66.5359 0001892  81.8199 278.3146 13.15549200 45874,13.155492,0.0001892,LEO
56054,ONEWEB-0552,2023,108.94,-1.0,+,87.92,Active,0,LEO,India,UK,Unknown,Unknown,Unknown,1 56054U 23043J   24058.53751497  .00000095  00000+0  19901-3 0  9998,2 56054  87.9217  51.3193 0002217  81.7082 278.4303 13.21826596 47175,13.21826596,0.0002217,LEO
